OBJECT_NAME,OBJECT_ID,EPOCH,MEAN_MOTION,ECCENTRICITY,INCLINATION,RA_OF_ASC_NODE,ARG_OF_PERICENTER,MEAN_ANOMALY,EPHEMERIS_TYPE,CLASSIFICATION_TYPE,NORAD_CAT_ID,ELEMENT_SET_NO,REV_AT_EPOCH,BSTAR,MEAN_MOTION_DOT,MEAN_MOTION_DDOT
KUIPER-00517,2026-140J,2026-07-15T12:14:05.929440,15.38758756,.00099071,51.8776,261.5519,285.3966,74.5926,0,U,69600,999,559,.52649208E-3,.20177E-3,0
KUIPER-00520,2026-140K,2026-07-15T09:42:19.512000,15.37649987,.00067859,51.8807,262.3489,356.7740,3.3202,0,U,69601,999,557,.3302604E-3,.12031E-3,0
KUIPER-00522,2026-140L,2026-07-15T10:35:57.836832,15.38607056,.00135484,51.8758,261.8461,260.1574,99.7884,0,U,69602,999,558,.39770811E-3,.15077E-3,0
KUIPER-00528,2026-140M,2026-07-15T09:46:13.498752,15.37496668,.0005838,51.8776,262.3554,2.7431,357.3587,0,U,69603,999,557,.20643255E-3,.7328E-4,0
KUIPER-00532,2026-140N,2026-07-15T13:09:58.404096,15.36568329,.0005683,51.8779,261.7998,36.3879,323.7493,0,U,69604,999,559,.30246E-3,.10595E-3,0
KUIPER-00533,2026-140P,2026-07-15T12:30:23.440896,15.38285218,.0008017,51.8788,261.6239,329.7919,30.2605,0,U,69605,999,559,.42948E-3,.16113E-3,0
KUIPER-00534,2026-140Q,2026-07-15T10:28:32.878560,15.38738369,.00135095,51.8816,261.8171,267.3676,92.5765,0,U,69606,999,558,.51344305E-3,.19679E-3,0
KUIPER-00537,2026-140R,2026-07-15T16:53:09.901248,15.34164379,.0010192,51.8798,261.3400,58.6014,301.5967,0,U,69607,999,561,.34099E-3,.11098E-3,0
KUIPER-00538,2026-140S,2026-07-15T09:38:44.401920,15.37733803,.00068647,51.8801,262.3284,343.4540,16.6222,0,U,69608,999,557,.31207916E-3,.11378E-3,0
KUIPER-00540,2026-140T,2026-07-15T13:03:19.247328,15.36974706,.0006525,51.8801,261.7810,25.6847,334.4462,0,U,69609,999,559,.32028E-3,.11396E-3,0
KUIPER-00541,2026-140U,2026-07-15T15:36:54.683424,15.38434456,.0007813,51.8814,261.0046,327.2790,32.7713,0,U,69610,999,561,.49359E-3,.18675E-3,0
KUIPER-00542,2026-140V,2026-07-15T12:28:08.000256,15.38300664,.0007551,51.8787,261.6133,305.1433,54.8846,0,U,69611,999,559,.4135E-3,.15503E-3,0
KUIPER-00543,2026-140W,2026-07-15T11:36:18.148032,15.36836323,.00081209,51.8781,262.1121,36.0460,324.1072,0,U,69612,999,558,.19130301E-3,.6615E-4,0
KUIPER-00544,2026-140X,2026-07-15T04:46:49.869984,15.38181292,.00067607,51.8786,263.2162,320.6718,39.3777,0,U,69613,999,554,.38361422E-3,.14293E-3,0
KUIPER-00546,2026-140Y,2026-07-15T10:30:01.448928,15.38030937,.00140989,51.8791,261.8222,259.3635,100.5764,0,U,69614,999,558,.31465986E-3,.11616E-3,0
KUIPER-00547,2026-140Z,2026-07-15T10:52:43.463712,15.37935182,.0010988,51.8814,261.9298,291.0370,68.9441,0,U,69615,999,558,.39514133E-3,.14631E-3,0
KUIPER-00549,2026-140AA,2026-07-15T09:48:41.425056,15.37336482,.00079397,51.8779,262.3670,16.4596,343.6647,0,U,69616,999,557,.21107221E-3,.7464E-4,0
KUIPER-00550,2026-140AB,2026-07-15T11:00:25.631136,15.32093117,.0007785,51.8790,262.6866,63.0288,297.1491,0,U,69617,999,557,.28801451E-3,.8703E-4,0
KUIPER-00551,2026-140AC,2026-07-14T11:18:23.594688,15.38237315,.00121739,51.8780,266.5873,275.8264,84.1335,0,U,69618,999,543,.3516009E-3,.13109E-3,0
KUIPER-00554,2026-140AD,2026-07-15T12:23:37.226976,15.37995508,.0011182,51.8785,261.5940,293.2220,66.7589,0,U,69619,999,559,.44108E-3,.16416E-3,0
KUIPER-00555,2026-140AE,2026-07-15T20:00:01.999008,15.37989668,.001141,51.8810,260.0392,282.2434,48.5256,0,U,69620,999,511,-.704E-3,-.2709E-3,0
KUIPER-00556,2026-140AF,2026-07-15T12:17:57.859872,15.38342895,.0011978,51.8798,261.5737,269.4470,90.5145,0,U,69621,999,559,.38112E-3,.14294E-3,0
KUIPER-00557,2026-140AG,2026-07-15T09:25:01.552512,15.37532137,.00097305,51.8799,262.2684,300.5398,59.4628,0,U,69622,999,557,.34484619E-3,.12541E-3,0
KUIPER-00560,2026-140AH,2026-07-15T20:00:01.999008,15.37012758,.0009279,51.8781,260.0253,314.5780,18.5589,0,U,69623,999,521,-.66929E-3,-.24963E-3,0
KUIPER-00561,2026-140AJ,2026-07-15T10:47:34.639872,15.38731571,.00081738,51.8811,261.9079,307.9079,52.1169,0,U,69624,999,558,.23456096E-3,.874E-4,0
KUIPER-00564,2026-140AK,2026-07-15T12:27:59.572800,15.37214015,.000923,51.8790,261.6212,303.1110,56.8990,0,U,69625,999,559,.4022E-3,.14541E-3,0
KUIPER-00567,2026-140AL,2026-07-15T20:00:01.999008,15.38325864,.0013068,51.8767,259.9834,272.2220,80.4902,0,U,69626,999,562,-.65487E-3,-.25527E-3,0
KUIPER-00573,2026-140AM,2026-07-15T11:04:07.897728,15.37486142,.0009393,51.8775,261.9707,287.3188,72.6771,0,U,69627,999,558,.37413004E-3,.13619E-3,0
KZ-11 R/B,2026-138H,2026-07-12T21:48:00.762624,15.43010363,.03770511,55.1520,167.7492,143.6026,219.1292,0,U,69628,999,389,.75497354E-3,.78015E-2,.9750105E-5
CENTISPACE-1 GROUP 05 OBJECT J,2026-138J,2026-07-13T09:42:48.125952,14.15842380,.00095471,55.1383,184.3032,341.3483,18.7141,0,U,69636,999,370,-.51944164E-4,-.256E-5,0
